ONEWEB-0012             
1 44057U 19010A   25274.25553675 -.00000053  00000+0 -17219-3 0  9991
2 44057  87.8964 280.3949 0001700  77.3897 282.7424 13.16594133317497
ONEWEB-0010             
1 44058U 19010B   25274.28086609 -.00000257  00000+0 -70698-3 0  9999
2 44058  87.8967 280.3737 0001729 103.0965 257.0359 13.16594111317544
ONEWEB-0008             
1 44059U 19010C   25274.30619940  .00000133  00000+0  31435-3 0  9990
2 44059  87.8965 280.3653 0002083  88.5485 271.5885 13.16592767317661
ONEWEB-0007             
1 44060U 19010D   25274.05960590 -.00000314  00000+0 -86705-3 0  9997
2 44060  87.9000 310.9428 0001556  98.3756 261.7550 13.15547964317307
ONEWEB-0006             
1 44061U 19010E   25274.06355598 -.00000014  00000+0 -71759-4 0  9996
2 44061  87.9004 310.8836 0001678 101.4749 258.6570 13.15550111317357
ONEWEB-0011             
1 44062U 19010F   25274.33610063  .00000031  00000+0  47096-4 0  9992
2 44062  87.8999 310.8419 0002019  98.6678 261.4681 13.15547419317380
ONEWEB-0013             
1 45131U 20008A   25274.28788845  .00000719  00000+0  20511-2 0  9991
2 45131  87.8461 105.1143 0001594  50.3842 309.7425 13.09435133272188
ONEWEB-0017             
1 45132U 20008B   25274.22415361 -.00000047  00000+0 -17183-3 0  9994
2 45132  87.8744  87.9097 0001662  98.3235 261.8081 13.10375540274031
